{"epoch":1784902576,"count":18312,"objects":[{"id":"62711","name":"LEMUR 2 ROUNDTRIPPER","type":"PAYLOAD","l1":"1 62711U 25009DG  26205.21603104  .00009952  00000-0  71756-3 0  9999","l2":"2 62711  97.7240 287.8535 0004185  45.3822 314.7744 15.04340782 83193"},{"id":"62712","name":"LEMUR 2 MYNAMEISJEFF","type":"PAYLOAD","l1":"1 62712U 25009DH  26205.21456695  .00010351  00000-0  74621-3 0  9990","l2":"2 62712  97.7285 288.2555 0004179  79.0818 281.0878 15.04335792 83191"},{"id":"63246","name":"LEMUR 2 LEIA-PHILIP","type":"PAYLOAD","l1":"1 63246U 25052AN  26205.22473762  .00001226  00000-0  11039-3 0  9991","l2":"2 63246  97.6781  96.5454 0005130 101.0135 259.1665 14.97402885 74210"},{"id":"63248","name":"LEMUR 2 LIA-MARTIN","type":"PAYLOAD","l1":"1 63248U 25052AQ  26205.14855520  .00004587  00000-0  39250-3 0  9998","l2":"2 63248  97.6840  97.0052 0004512  67.8872 292.2829 14.98077587 74216"},{"id":"63259","name":"LEMUR 2 DELOITTE-1","type":"PAYLOAD","l1":"1 63259U 25052BB  26205.13045549  .00004197  00000-0  36186-3 0  9993","l2":"2 63259  97.6887  97.3179 0002393  50.6720 309.4714 14.97839318 74221"},{"id":"63261","name":"LEMUR 2 EMERSONROSE","type":"PAYLOAD","l1":"1 63261U 25052BD  26205.20238814  .00004300  00000-0  35644-3 0  9997","l2":"2 63261  97.6884  98.0226 0002074  36.8433 323.2932 14.99347441 74280"},{"id":"63262","name":"LEMUR 2 MARACHE-FRAN","type":"PAYLOAD","l1":"1 63262U 25052BE  26205.21898681  .00005469  00000-0  44006-3 0  9992","l2":"2 63262  97.6804  98.4131 0006349 217.7261 142.3519 15.00369866 74313"},{"id":"63264","name":"LEMUR 2 THEFALCONER","type":"PAYLOAD","l1":"1 63264U 25052BG  26205.22909880  .00003913  00000-0  33976-3 0  9995","l2":"2 63264  97.6806  96.9946 0001179 190.4374 169.6824 14.97602576 74237"},{"id":"63351","name":"LEMUR 2 UNTITLED-SC","type":"PAYLOAD","l1":"1 63351U 25061A   26204.84591604  .00003394  00000-0  19142-3 0  9992","l2":"2 63351  97.5659 179.9506 0020024 134.5995 225.6874 15.13689839 73133"},{"id":"63352","name":"LEMUR 2 ESPERANZA","type":"PAYLOAD","l1":"1 63352U 25061B   26204.88674725  .00003846  00000-0  21583-3 0  9997","l2":"2 63352  97.5667 180.0935 0019648 133.8782 226.4077 15.13795610 73148"},{"id":"63353","name":"LEMUR 2 KREMPEL-BRO2","type":"PAYLOAD","l1":"1 63353U 25061C   26204.90326467  .00003757  00000-0  20828-3 0  9990","l2":"2 63353  97.5714 180.6899 0020705 126.8265 233.4870 15.14225101 73166"},{"id":"63354","name":"LEMUR 2 THERMORAPTOR","type":"PAYLOAD","l1":"1 63354U 25061D   26204.81726797  .00004101  00000-0  22654-3 0  9994","l2":"2 63354  97.5719 180.6872 0020427 126.1097 234.2029 15.14307270 73152"},{"id":"63355","name":"LEMUR 2 NEUROSPICY","type":"PAYLOAD","l1":"1 63355U 25061E   26204.85218044  .00003521  00000-0  19455-3 0  9990","l2":"2 63355  97.5644 180.3197 0018282 128.8962 231.3903 15.14425777 73166"},{"id":"63356","name":"LEMUR 2 TILLINFINITY","type":"PAYLOAD","l1":"1 63356U 25061F   26204.80725757  .00004975  00000-0  26866-3 0  9998","l2":"2 63356  97.5631 180.5913 0019688 118.2874 242.0348 15.15017047 73189"},{"id":"63357","name":"LEMUR 2 KREMPEL-BRO1","type":"PAYLOAD","l1":"1 63357U 25061G   26204.85147035  .00003547  00000-0  19366-3 0  9992","l2":"2 63357  97.5631 180.5411 0020308 119.3504 240.9759 15.14817322 73182"},{"id":"63358","name":"LEMUR 2 LANGER2SPACE","type":"PAYLOAD","l1":"1 63358U 25061H   26204.88534717  .00003962  00000-0  21797-3 0  9995","l2":"2 63358  97.5637 180.3739 0018147 127.1496 233.1396 15.14510647 73175"},{"id":"63395","name":"LEMUR 2 BALTO","type":"PAYLOAD","l1":"1 63395U 25052BH  26205.26970830  .00005298  00000-0  42592-3 0  9999","l2":"2 63395  97.6917  98.4646 0005041 287.0687  72.9984 15.00425695 74324"},{"id":"64561","name":"LEMUR 2 KRISH","type":"PAYLOAD","l1":"1 64561U 25135AK  26205.32094152  .00005902  00000-0  52437-3 0  9999","l2":"2 64561  97.7759 319.9529 0001378 109.9368 250.2002 14.96509567 59479"},{"id":"64565","name":"LEMUR 2 HUBBLE-4","type":"PAYLOAD","l1":"1 64565U 25135AP  26205.31875902  .00001654  00000-0  16168-3 0  9993","l2":"2 64565  97.7723 318.7982 0003326 141.0620 219.0840 14.93705373 59414"},{"id":"64586","name":"LEMUR 2 SEJONG-2","type":"PAYLOAD","l1":"1 64586U 25135BL  26205.27229508  .00007329  00000-0  64188-3 0  9996","l2":"2 64586  97.7716 320.0505 0004513 178.6048 181.5187 14.96981401 59491"},{"id":"64840","name":"LEMUR 2 HUBBLE-5","type":"PAYLOAD","l1":"1 64840U 25135BT  26205.25741372  .00001899  00000-0  18243-3 0  9992","l2":"2 64840  97.7743 319.4164 0005042 199.7904 160.3122 14.94233827 59449"},{"id":"64841","name":"LEMUR 2 KARENDARRELL","type":"PAYLOAD","l1":"1 64841U 25135BU  26205.26549559  .00009207  00000-0  73176-3 0  9994","l2":"2 64841  97.7723 321.4316 0013079  77.2629 283.0055 15.00605072 59578"},{"id":"65403","name":"LEMUR-2-LUCILLE-ROSE","type":"PAYLOAD","l1":"1 65403U 25135BV  26205.30574260  .00009367  00000-0  74420-3 0  9991","l2":"2 65403  97.7686 321.5042 0015694 161.9104 198.2681 15.00586192 54200"},{"id":"66295","name":"LEMUR 2 AFFIE-WAUWIE","type":"PAYLOAD","l1":"1 66295U 25248C   26205.25848843  .00024128  00000-0  85957-3 0  9990","l2":"2 66295  45.3915 273.9221 0009276 298.2837  61.7116 15.28552015 40264"},{"id":"66678","name":"OTTER SDM","type":"PAYLOAD","l1":"1 66678U 25276N   26205.18155790  .00007592  00000-0  35397-3 0  9999","l2":"2 66678  97.4197 278.0497 0004878 214.1967 145.8955 15.20142639 36038"},{"id":"66686","name":"LEMUR-2-STAS-GORBUK","type":"PAYLOAD","l1":"1 66686U 25276W   26205.20536949  .00006604  00000-0  31206-3 0  9998","l2":"2 66686  97.4229 278.1233 0004394 208.8258 151.2735 15.19731828 36037"},{"id":"66768","name":"LEMUR-2-TEODOR","type":"PAYLOAD","l1":"1 66768U 25276DG  26205.21420001  .00007148  00000-0  32149-3 0  9992","l2":"2 66768  97.4135 278.4155 0002028  81.5141 278.6324 15.21414745 36070"},{"id":"66776","name":"LEMUR-2-LAILA","type":"PAYLOAD","l1":"1 66776U 25276DQ  26205.18265904  .00006771  00000-0  30268-3 0  9997","l2":"2 66776  97.4159 278.5290 0002752  81.0149 279.1398 15.21642137 36078"},{"id":"66781","name":"LEMUR-2-CELIJO-SB-PK","type":"PAYLOAD","l1":"1 66781U 25276DW  26205.18861562  .00007727  00000-0  61944-3 0  9992","l2":"2 66781  97.5183 274.7430 0006469  42.5477 317.6247 15.00367162 28173"}]}