OBJECT_NAME,OBJECT_ID,EPOCH,MEAN_MOTION,ECCENTRICITY,INCLINATION,RA_OF_ASC_NODE,ARG_OF_PERICENTER,MEAN_ANOMALY,EPHEMERIS_TYPE,CLASSIFICATION_TYPE,NORAD_CAT_ID,ELEMENT_SET_NO,REV_AT_EPOCH,BSTAR,MEAN_MOTION_DOT,MEAN_MOTION_DDOT
LEMUR-2-ROUNDTRIPPER,2025-009DG,2026-07-24T05:11:05.081856,15.04340782,.00041845,97.7240,287.8535,45.3822,314.7744,0,U,62711,999,8319,.71756411E-3,.9952E-4,0
LEMUR-2-MYNAMEISJEFF,2025-009DH,2026-07-24T05:08:58.584480,15.04335792,.00041786,97.7285,288.2555,79.0818,281.0878,0,U,62712,999,8319,.74620545E-3,.10351E-3,0
LEMUR-2-LEIA-PHILIP,2025-052AN,2026-07-24T05:23:37.330368,14.97402885,.00051296,97.6781,96.5454,101.0135,259.1665,0,U,63246,999,7421,.11038944E-3,.1226E-4,0
LEMUR-2-LIA-MARTIN,2025-052AQ,2026-07-24T03:33:55.169280,14.98077587,.0004512,97.6840,97.0052,67.8872,292.2829,0,U,63248,999,7421,.39250295E-3,.4587E-4,0
LEMUR-2-DELOITTE-1,2025-052BB,2026-07-24T03:07:51.354336,14.97839318,.00023927,97.6887,97.3179,50.6720,309.4714,0,U,63259,999,7422,.36185543E-3,.4197E-4,0
LEMUR-2-EMERSONROSE,2025-052BD,2026-07-24T04:51:26.335296,14.99347441,.00020737,97.6884,98.0226,36.8433,323.2932,0,U,63261,999,7428,.35643911E-3,.43E-4,0
LEMUR-2-MARACHE-FRAN,2025-052BE,2026-07-24T05:15:20.460384,15.00369866,.00063486,97.6804,98.4131,217.7261,142.3519,0,U,63262,999,7431,.44005735E-3,.5469E-4,0
LEMUR-2-THEFALCONER,2025-052BG,2026-07-24T05:29:54.136320,14.97602576,.0001179,97.6806,96.9946,190.4374,169.6824,0,U,63264,999,7423,.3397574E-3,.3913E-4,0
LEMUR-2-UNTITLED-SC,2025-061A,2026-07-23T20:18:07.145856,15.13689839,.00200239,97.5659,179.9506,134.5995,225.6874,0,U,63351,999,7313,.19141671E-3,.3394E-4,0
LEMUR-2-ESPERANZA,2025-061B,2026-07-23T21:16:54.962400,15.13795610,.00196478,97.5667,180.0935,133.8782,226.4077,0,U,63352,999,7314,.21582579E-3,.3846E-4,0
LEMUR-2-KREMPEL-BRO2,2025-061C,2026-07-23T21:40:42.067488,15.14225101,.00207054,97.5714,180.6899,126.8265,233.4870,0,U,63353,999,7316,.20827555E-3,.3757E-4,0
LEMUR-2-THERMORAPTOR,2025-061D,2026-07-23T19:36:51.952608,15.14307270,.00204268,97.5719,180.6872,126.1097,234.2029,0,U,63354,999,7315,.22653528E-3,.4101E-4,0
LEMUR-2-NEUROSPICY,2025-061E,2026-07-23T20:27:08.390016,15.14425777,.00182817,97.5644,180.3197,128.8962,231.3903,0,U,63355,999,7316,.19454987E-3,.3521E-4,0
LEMUR-2-TILLINFINITY,2025-061F,2026-07-23T19:22:27.054048,15.15017047,.00196877,97.5631,180.5913,118.2874,242.0348,0,U,63356,999,7318,.26865933E-3,.4975E-4,0
LEMUR-2-KREMPEL-BRO1,2025-061G,2026-07-23T20:26:07.038240,15.14817322,.00203076,97.5631,180.5411,119.3504,240.9759,0,U,63357,999,7318,.19365764E-3,.3547E-4,0
LEMUR-2-LANGER2SPACE,2025-061H,2026-07-23T21:14:53.995488,15.14510647,.00181465,97.5637,180.3739,127.1496,233.1396,0,U,63358,999,7317,.21796654E-3,.3962E-4,0
LEMUR-2-BALTO,2025-052BH,2026-07-24T06:28:22.797120,15.00425695,.0005041,97.6917,98.4646,287.0687,72.9984,0,U,63395,999,7432,.42592108E-3,.5298E-4,0
LEMUR-2-KRISH,2025-135AK,2026-07-24T07:42:09.347328,14.96509567,.00013784,97.7759,319.9529,109.9368,250.2002,0,U,64561,999,5947,.52436896E-3,.5902E-4,0
LEMUR-2-HUBBLE-4,2025-135AP,2026-07-24T07:39:00.779328,14.93705373,.00033259,97.7723,318.7982,141.0620,219.0840,0,U,64565,999,5941,.16168472E-3,.1654E-4,0
LEMUR-2-SEJONG-2,2025-135BL,2026-07-24T06:32:06.294912,14.96981401,.00045126,97.7716,320.0505,178.6048,181.5187,0,U,64586,999,5949,.64187829E-3,.7329E-4,0
LEMUR-2-HUBBLE-5,2025-135BT,2026-07-24T06:10:40.545408,14.94233827,.00050423,97.7743,319.4164,199.7904,160.3122,0,U,64840,999,5944,.18242689E-3,.1899E-4,0
LEMUR-2-KARENDARRELL,2025-135BU,2026-07-24T06:22:18.818976,15.00605072,.00130787,97.7723,321.4316,77.2629,283.0055,0,U,64841,999,5957,.731756E-3,.9207E-4,0
LEMUR-2-LUCILLE-ROSE,2025-135BV,2026-07-24T07:20:16.160640,15.00586192,.00156936,97.7686,321.5042,161.9104,198.2681,0,U,65403,999,5420,.74420182E-3,.9367E-4,0
LEMUR-2-AFFIE-WAUWIE,2025-248C,2026-07-24T06:12:13.400352,15.28552015,.00092759,45.3915,273.9221,298.2837,61.7116,0,U,66295,999,4026,.85956528E-3,.24128E-3,0
OTTER SDM,2025-276N,2026-07-24T04:21:26.602560,15.20142639,.00048779,97.4197,278.0497,214.1967,145.8955,0,U,66678,999,3603,.3539667E-3,.7592E-4,0
LEMUR-2-STAS-GORBUK,2025-276W,2026-07-24T04:55:43.923936,15.19731828,.00043938,97.4229,278.1233,208.8258,151.2735,0,U,66686,999,3603,.31206174E-3,.6604E-4,0
LEMUR-2-TEODOR,2025-276DG,2026-07-24T05:08:26.880864,15.21414745,.00020276,97.4135,278.4155,81.5141,278.6324,0,U,66768,999,3607,.32148696E-3,.7148E-4,0
LEMUR-2-LAILA,2025-276DQ,2026-07-24T04:23:01.741056,15.21642137,.00027517,97.4159,278.5290,81.0149,279.1398,0,U,66776,999,3607,.3026838E-3,.6771E-4,0
LEMUR-2-CELIJO-SB-PK,2025-276DW,2026-07-24T04:31:36.389568,15.00367162,.00064686,97.5183,274.7430,42.5477,317.6247,0,U,66781,999,2817,.61943753E-3,.7727E-4,0
